{"fetched_at":"2026-07-17T17:37:56.755Z","source":"https://celestrak.org/NORAD/elements/gp.php?GROUP=qianfan&FORMAT=JSON","constellation":"qianfan","records":[{"OBJECT_NAME":"QIANFAN-209","OBJECT_ID":"2026-153J","EPOCH":"2026-07-17T06:50:40.308000","CLASSIFICATION_TYPE":"U","MEAN_MOTION":14.23086412,"ECCENTRICITY":0.00075683,"INCLINATION":88.9924,"RA_OF_ASC_NODE":358.8081,"ARG_OF_PERICENTER":173.5093,"MEAN_ANOMALY":186.6198,"EPHEMERIS_TYPE":0,"NORAD_CAT_ID":69808,"ELEMENT_SET_NO":999,"REV_AT_EPOCH":184,"BSTAR":0.000048187723,"MEAN_MOTION_DOT":0.00000123,"MEAN_MOTION_DDOT":0},{"OBJECT_NAME":"QIANFAN-210","OBJECT_ID":"2026-153K","EPOCH":"2026-07-17T05:04:31.156608","CLASSIFICATION_TYPE":"U","MEAN_MOTION":14.23252529,"ECCENTRICITY":0.00081075,"INCLINATION":88.9925,"RA_OF_ASC_NODE":358.8158,"ARG_OF_PERICENTER":176.5444,"MEAN_ANOMALY":183.5806,"EPHEMERIS_TYPE":0,"NORAD_CAT_ID":69809,"ELEMENT_SET_NO":999,"REV_AT_EPOCH":183,"BSTAR":0.000015948121,"MEAN_MOTION_DOT":5.1e-7,"MEAN_MOTION_DDOT":0},{"OBJECT_NAME":"QIANFAN-211","OBJECT_ID":"2026-153L","EPOCH":"2026-07-17T01:41:21.370272","CLASSIFICATION_TYPE":"U","MEAN_MOTION":14.23381926,"ECCENTRICITY":0.00077014,"INCLINATION":88.9924,"RA_OF_ASC_NODE":358.8317,"ARG_OF_PERICENTER":173.6396,"MEAN_ANOMALY":186.4896,"EPHEMERIS_TYPE":0,"NORAD_CAT_ID":69810,"ELEMENT_SET_NO":999,"REV_AT_EPOCH":181,"BSTAR":0.000015310706,"MEAN_MOTION_DOT":4.9e-7,"MEAN_MOTION_DDOT":0},{"OBJECT_NAME":"QIANFAN-212","OBJECT_ID":"2026-153M","EPOCH":"2026-07-16T22:14:52.798272","CLASSIFICATION_TYPE":"U","MEAN_MOTION":14.26669772,"ECCENTRICITY":0.00082464,"INCLINATION":88.9924,"RA_OF_ASC_NODE":358.8476,"ARG_OF_PERICENTER":179.1542,"MEAN_ANOMALY":180.9667,"EPHEMERIS_TYPE":0,"NORAD_CAT_ID":69811,"ELEMENT_SET_NO":999,"REV_AT_EPOCH":179,"BSTAR":0.000059324594,"MEAN_MOTION_DOT":0.00000158,"MEAN_MOTION_DDOT":0},{"OBJECT_NAME":"QIANFAN-213","OBJECT_ID":"2026-153N","EPOCH":"2026-07-17T04:58:49.517184","CLASSIFICATION_TYPE":"U","MEAN_MOTION":14.26674171,"ECCENTRICITY":0.00079882,"INCLINATION":88.9924,"RA_OF_ASC_NODE":358.8151,"ARG_OF_PERICENTER":178.1285,"MEAN_ANOMALY":181.994,"EPHEMERIS_TYPE":0,"NORAD_CAT_ID":69812,"ELEMENT_SET_NO":999,"REV_AT_EPOCH":183,"BSTAR":0.000060689668,"MEAN_MOTION_DOT":0.00000161,"MEAN_MOTION_DDOT":0},{"OBJECT_NAME":"QIANFAN-214","OBJECT_ID":"2026-153P","EPOCH":"2026-07-17T01:36:43.764480","CLASSIFICATION_TYPE":"U","MEAN_MOTION":14.26715307,"ECCENTRICITY":0.00080097,"INCLINATION":88.9924,"RA_OF_ASC_NODE":358.8314,"ARG_OF_PERICENTER":177.9806,"MEAN_ANOMALY":182.1422,"EPHEMERIS_TYPE":0,"NORAD_CAT_ID":69813,"ELEMENT_SET_NO":999,"REV_AT_EPOCH":181,"BSTAR":0.000041173484,"MEAN_MOTION_DOT":0.00000114,"MEAN_MOTION_DDOT":0},{"OBJECT_NAME":"QIANFAN-215","OBJECT_ID":"2026-153Q","EPOCH":"2026-07-17T04:58:40.757952","CLASSIFICATION_TYPE":"U","MEAN_MOTION":14.26718685,"ECCENTRICITY":0.0008111,"INCLINATION":88.9923,"RA_OF_ASC_NODE":358.8148,"ARG_OF_PERICENTER":178.9203,"MEAN_ANOMALY":181.201,"EPHEMERIS_TYPE":0,"NORAD_CAT_ID":69814,"ELEMENT_SET_NO":999,"REV_AT_EPOCH":183,"BSTAR":0.000047362684,"MEAN_MOTION_DOT":0.00000129,"MEAN_MOTION_DDOT":0},{"OBJECT_NAME":"QIANFAN-216","OBJECT_ID":"2026-153R","EPOCH":"2026-07-17T04:58:40.128960","CLASSIFICATION_TYPE":"U","MEAN_MOTION":14.26719738,"ECCENTRICITY":0.00080824,"INCLINATION":88.9924,"RA_OF_ASC_NODE":358.8151,"ARG_OF_PERICENTER":178.7232,"MEAN_ANOMALY":181.3984,"EPHEMERIS_TYPE":0,"NORAD_CAT_ID":69815,"ELEMENT_SET_NO":999,"REV_AT_EPOCH":183,"BSTAR":0.000015919622,"MEAN_MOTION_DOT":5.3e-7,"MEAN_MOTION_DDOT":0},{"OBJECT_NAME":"QIANFAN-217","OBJECT_ID":"2026-153S","EPOCH":"2026-07-17T04:58:01.825248","CLASSIFICATION_TYPE":"U","MEAN_MOTION":14.26767977,"ECCENTRICITY":0.00077621,"INCLINATION":88.9918,"RA_OF_ASC_NODE":358.8151,"ARG_OF_PERICENTER":176.2626,"MEAN_ANOMALY":183.8627,"EPHEMERIS_TYPE":0,"NORAD_CAT_ID":69816,"ELEMENT_SET_NO":999,"REV_AT_EPOCH":183,"BSTAR":-0.000013431736,"MEAN_MOTION_DOT":-1.8e-7,"MEAN_MOTION_DDOT":0},{"OBJECT_NAME":"QIANFAN-218","OBJECT_ID":"2026-153T","EPOCH":"2026-07-17T04:57:29.602368","CLASSIFICATION_TYPE":"U","MEAN_MOTION":14.26810969,"ECCENTRICITY":0.00075569,"INCLINATION":88.9925,"RA_OF_ASC_NODE":358.8152,"ARG_OF_PERICENTER":172.5762,"MEAN_ANOMALY":187.5545,"EPHEMERIS_TYPE":0,"NORAD_CAT_ID":69817,"ELEMENT_SET_NO":999,"REV_AT_EPOCH":183,"BSTAR":0.000037450451,"MEAN_MOTION_DOT":0.00000105,"MEAN_MOTION_DDOT":0},{"OBJECT_NAME":"QIANFAN-219","OBJECT_ID":"2026-155A","EPOCH":"2026-07-17T06:11:52.018944","CLASSIFICATION_TYPE":"U","MEAN_MOTION":14.26455236,"ECCENTRICITY":0.00306847,"INCLINATION":89.0065,"RA_OF_ASC_NODE":60.7116,"ARG_OF_PERICENTER":216.1171,"MEAN_ANOMALY":143.7951,"EPHEMERIS_TYPE":0,"NORAD_CAT_ID":69848,"ELEMENT_SET_NO":999,"REV_AT_EPOCH":167,"BSTAR":0.000081483372,"MEAN_MOTION_DOT":0.00000211,"MEAN_MOTION_DDOT":0},{"OBJECT_NAME":"QIANFAN-220","OBJECT_ID":"2026-155B","EPOCH":"2026-07-16T23:44:30.305760","CLASSIFICATION_TYPE":"U","MEAN_MOTION":14.16403044,"ECCENTRICITY":0.00353896,"INCLINATION":89.0057,"RA_OF_ASC_NODE":60.7457,"ARG_OF_PERICENTER":221.7585,"MEAN_ANOMALY":138.0902,"EPHEMERIS_TYPE":0,"NORAD_CAT_ID":69849,"ELEMENT_SET_NO":999,"REV_AT_EPOCH":163,"BSTAR":-1.0534985,"MEAN_MOTION_DOT":-0.01953706,"MEAN_MOTION_DDOT":0},{"OBJECT_NAME":"QIANFAN-221","OBJECT_ID":"2026-155C","EPOCH":"2026-07-17T06:10:42.061728","CLASSIFICATION_TYPE":"U","MEAN_MOTION":14.26647447,"ECCENTRICITY":0.00304935,"INCLINATION":89.0064,"RA_OF_ASC_NODE":60.7114,"ARG_OF_PERICENTER":216.5614,"MEAN_ANOMALY":143.3499,"EPHEMERIS_TYPE":0,"NORAD_CAT_ID":69850,"ELEMENT_SET_NO":999,"REV_AT_EPOCH":167,"BSTAR":0.000085749997,"MEAN_MOTION_DOT":0.00000223,"MEAN_MOTION_DDOT":0},{"OBJECT_NAME":"QIANFAN-222","OBJECT_ID":"2026-155D","EPOCH":"2026-07-17T06:27:28.609632","CLASSIFICATION_TYPE":"U","MEAN_MOTION":14.22185139,"ECCENTRICITY":0.00294946,"INCLINATION":89.0065,"RA_OF_ASC_NODE":60.7132,"ARG_OF_PERICENTER":216.6268,"MEAN_ANOMALY":143.2908,"EPHEMERIS_TYPE":0,"NORAD_CAT_ID":69851,"ELEMENT_SET_NO":999,"REV_AT_EPOCH":167,"BSTAR":0.000077653058,"MEAN_MOTION_DOT":0.00000187,"MEAN_MOTION_DDOT":0},{"OBJECT_NAME":"QIANFAN-223","OBJECT_ID":"2026-155E","EPOCH":"2026-07-17T06:24:14.178528","CLASSIFICATION_TYPE":"U","MEAN_MOTION":14.22139826,"ECCENTRICITY":0.00292454,"INCLINATION":89.0066,"RA_OF_ASC_NODE":60.7131,"ARG_OF_PERICENTER":215.9434,"MEAN_ANOMALY":143.9791,"EPHEMERIS_TYPE":0,"NORAD_CAT_ID":69852,"ELEMENT_SET_NO":999,"REV_AT_EPOCH":167,"BSTAR":0.000041874282,"MEAN_MOTION_DOT":0.00000107,"MEAN_MOTION_DDOT":0},{"OBJECT_NAME":"QIANFAN-224","OBJECT_ID":"2026-155F","EPOCH":"2026-07-17T06:20:46.170528","CLASSIFICATION_TYPE":"U","MEAN_MOTION":14.23568572,"ECCENTRICITY":0.0030125,"INCLINATION":89.0058,"RA_OF_ASC_NODE":60.7117,"ARG_OF_PERICENTER":216.1163,"MEAN_ANOMALY":143.7995,"EPHEMERIS_TYPE":0,"NORAD_CAT_ID":69853,"ELEMENT_SET_NO":999,"REV_AT_EPOCH":167,"BSTAR":0.000086862369,"MEAN_MOTION_DOT":0.00000213,"MEAN_MOTION_DDOT":0}]}
