QIANFAN-209             
1 69808U 26153J   26198.28518875  .00000123  00000+0  48188-4 0  9996
2 69808  88.9924 358.8081 0007568 173.5093 186.6198 14.23086412  1843
QIANFAN-210             
1 69809U 26153K   26198.21147172  .00000051  00000+0  15948-4 0  9996
2 69809  88.9925 358.8158 0008107 176.5444 183.5806 14.23252529  1838
QIANFAN-211             
1 69810U 26153L   26198.07038623  .00000049  00000+0  15311-4 0  9993
2 69810  88.9924 358.8317 0007701 173.6396 186.4896 14.23381926  1812
QIANFAN-212             
1 69811U 26153M   26197.92699998  .00000158  00000+0  59325-4 0  9999
2 69811  88.9924 358.8476 0008246 179.1542 180.9667 14.26669772  1791
QIANFAN-213             
1 69812U 26153N   26198.20751756  .00000161  00000+0  60690-4 0  9994
2 69812  88.9924 358.8151 0007988 178.1285 181.9940 14.26674171  1836
QIANFAN-214             
1 69813U 26153P   26198.06717320  .00000114  00000+0  41173-4 0  9991
2 69813  88.9924 358.8314 0008009 177.9806 182.1422 14.26715307  1812
QIANFAN-215             
1 69814U 26153Q   26198.20741618  .00000129  00000+0  47363-4 0  9998
2 69814  88.9923 358.8148 0008111 178.9203 181.2010 14.26718685  1830
QIANFAN-216             
1 69815U 26153R   26198.20740890  .00000053  00000+0  15920-4 0  9990
2 69815  88.9924 358.8151 0008082 178.7232 181.3984 14.26719738  1834
QIANFAN-217             
1 69816U 26153S   26198.20696557 -.00000018  00000+0 -13432-4 0  9990
2 69816  88.9918 358.8151 0007762 176.2626 183.8627 14.26767977  1831
QIANFAN-218             
1 69817U 26153T   26198.20659262  .00000105  00000+0  37450-4 0  9994
2 69817  88.9925 358.8152 0007556 172.5762 187.5545 14.26810969  1832
QIANFAN-219             
1 69848U 26155A   26198.25824096  .00000211  00000+0  81483-4 0  9997
2 69848  89.0065  60.7116 0030684 216.1171 143.7951 14.26455236  1678
QIANFAN-220             
1 69849U 26155B   26197.98923965 -.01953706  00000+0 -10535+1 0  9997
2 69849  89.0057  60.7457 0035389 221.7585 138.0902 14.16403044  1634
QIANFAN-221             
1 69850U 26155C   26198.25743127  .00000223  00000+0  85750-4 0  9999
2 69850  89.0064  60.7114 0030493 216.5614 143.3499 14.26647447  1672
QIANFAN-222             
1 69851U 26155D   26198.26908113  .00000187  00000+0  77653-4 0  9991
2 69851  89.0065  60.7132 0029494 216.6268 143.2908 14.22185139  1674
QIANFAN-223             
1 69852U 26155E   26198.26683077  .00000107  00000+0  41874-4 0  9999
2 69852  89.0066  60.7131 0029245 215.9434 143.9791 14.22139826  1675
QIANFAN-224             
1 69853U 26155F   26198.26442327  .00000213  00000+0  86862-4 0  9995
2 69853  89.0058  60.7117 0030125 216.1163 143.7995 14.23568572  1671
